STARLINK-32821          
1 63078C 25037B   26104.71715278 -.00003159  00000+0 -26482-3 0  1044
2 63078  70.0000 263.6969 0002845 266.9118 194.9054 14.98324063    19
STARLINK-32817          
1 63079C 25037C   26104.75395833  .00011837  00000+0  99203-3 0  1041
2 63079  69.9997 263.4288 0003205 268.7085 189.1606 14.98323881    14
STARLINK-32906          
1 63080C 25037D   26104.71784722 -.00003824  00000+0 -32050-3 0  1044
2 63080  69.9997 263.7961 0002892 269.2602 105.3809 14.98329504    12
STARLINK-32895          
1 63081C 25037E   26104.77826389  .00017402  00000+0  14585-2 0  1044
2 63081  69.9999 263.6214 0003296 269.5011  94.3401 14.98319431    14
STARLINK-32933          
1 63082C 25037F   26104.82548611  .00032702  00000+0  27414-2 0  1045
2 63082  69.9998 263.3473 0002577 272.2938 120.3167 14.98303309    14
STARLINK-32932          
1 63083C 25037G   26104.78729167  .00024613  00000+0  20628-2 0  1040
2 63083  70.0001 263.4738 0002622 274.0615 251.0075 14.98317329    18
STARLINK-32908          
1 63084C 25037H   26104.81645833  .00028435  00000+0  23830-2 0  1046
2 63084  69.9998 263.3470 0002863 269.3192  98.0561 14.98315999    17
STARLINK-32505          
1 63085C 25037J   26104.74076389  .00007033  00000+0  58944-3 0  1049
2 63085  69.9997 263.7167 0003247 268.9642 251.7687 14.98324374    10
STARLINK-32914          
1 63086C 25037K   26104.73798611  .00009981  00000+0  83677-3 0  1043
2 63086  69.9997 263.5678 0002286 280.2758   1.3961 14.98312760    13
STARLINK-32918          
1 63087C 25037L   26104.74145833 -.00000131  00000+0 -10986-4 0  1041
2 63087  69.9997 263.6622 0003275 269.1545 301.2395 14.98327411    15
STARLINK-32912          
1 63088C 25037M   26104.74979167  .00012419  00000+0  10410-2 0  1047
2 63088  69.9997 263.3688 0002796 269.8780 232.1489 14.98318816    15
STARLINK-32910          
1 63089C 25037N   26104.80326389  .00030164  00000+0  25273-2 0  1047
2 63089  70.0000 263.4288 0002867 279.2639 330.9525 14.98324206    16
STARLINK-32903          
1 63090C 25037P   26104.72687500 -.00007806  00000+0 -65416-3 0  1048
2 63090  69.9998 263.4033 0003292 270.0725 131.7831 14.98333790    12
STARLINK-32925          
1 63091C 25037Q   26104.82479167  .00017462  00000+0  14631-2 0  1047
2 63091  69.9999 263.1767 0003178 270.9877 276.3600 14.98327600    18
STARLINK-32924          
1 63092C 25037R   26104.71854167  .00002094  00000+0  17551-3 0  1043
2 63092  69.9997 263.4985 0002986 265.6013  23.7279 14.98324043    15
STARLINK-32900          
1 63093C 25037S   26104.77618056  .00017301  00000+0  14500-2 0  1042
2 63093  69.9996 263.4257 0002554 273.1058 259.5849 14.98319802    10
STARLINK-32927          
1 63094C 25037T   26104.72756944  .00000139  00000+0  11657-4 0  1040
2 63094  70.0001 263.7228 0003040 270.1142 202.8645 14.98326429    12
STARLINK-32907          
1 63095C 25037U   26104.78868056  .00023182  00000+0  19430-2 0  1043
2 63095  70.0000 263.4897 0002819 271.8100 238.2387 14.98313434    14
STARLINK-32911          
1 63096C 25037V   26104.78659722  .00013220  00000+0  11080-2 0  1047
2 63096  69.9999 263.6225 0002880 270.9050 115.3687 14.98323571    19
STARLINK-32923          
1 63097C 25037W   26104.74631944  .00022376  00000+0  18754-2 0  1047
2 63097  69.9998 263.4018 0002907 266.7574 194.8121 14.98316260    13
STARLINK-32913          
1 63098C 25037X   26104.72687500  .00005993  00000+0  50235-3 0  1042
2 63098  69.9998 263.5178 0002715 276.2323  13.0843 14.98322679    11
STARLINK-11629 [DTC]    
1 63104C 25039A   26104.80118056  .00047728  00000+0  37092-3 0  1044
2 63104  43.0007  18.9449 0001635 249.4693 248.6157 15.70800795    13
STARLINK-11624 [DTC]    
1 63105C 25039B   26104.80673611  .00041383  00000+0  32158-3 0  1047
2 63105  43.0009  19.5222 0001764 250.9085  32.9797 15.70805365    19
STARLINK-11584 [DTC]    
1 63106C 25039C   26104.80604167  .00040359  00000+0  31347-3 0  1049
2 63106  43.0009  19.5129 0001718 253.5764  31.5241 15.70817715    19
STARLINK-11627 [DTC]    
1 63107C 25039D   26104.72062500  .00043832  00000+0  34059-3 0  1042
2 63107  43.0006  19.5773 0001653 255.2563  86.6095 15.70806591    14
STARLINK-11632 [DTC]    
1 63108C 25039E   26104.73312500  .00044705  00000+0  34755-3 0  1045
2 63108  43.0006  19.7263 0001691 256.8064  65.6595 15.70793989    14
STARLINK-11625 [DTC]    
1 63109C 25039F   26104.74909722  .00045308  00000+0  35218-3 0  1040
2 63109  43.0007  19.7046 0001677 257.9568 124.8721 15.70797208    17
STARLINK-11601 [DTC]    
1 63110C 25039G   26104.72548611  .00053963  00000+0  41942-3 0  1043
2 63110  43.0007  19.6217 0001543 264.7358  74.5935 15.70795511    16
STARLINK-11630 [DTC]    
1 63111C 25039H   26104.77756944  .00050171  00000+0  38980-3 0  1045
2 63111  43.0008  19.6074 0001634 261.3640 252.5968 15.70805771    11
STARLINK-11590 [DTC]    
1 63112C 25039J   26104.75395833  .00064675  00000+0  50262-3 0  1041
2 63112  43.0007  19.8982 0001689 252.0615  68.1120 15.70792470    12
STARLINK-11598 [DTC]    
1 63113C 25039K   26104.80881944  .00041362  00000+0  32139-3 0  1042
2 63113  43.0006  19.1938 0001579 258.7263 162.3608 15.70808426    13
STARLINK-11600 [DTC]    
1 63114C 25039L   26104.74770833  .00062309  00000+0  48430-3 0  1045
2 63114  43.0003  19.3366 0001696 259.5008 265.7735 15.70790254    12
STARLINK-11597 [DTC]    
1 63115C 25039M   26104.75187500  .00055541  00000+0  43160-3 0  1045
2 63115  43.0006  19.1618 0001737 255.4636 353.5210 15.70799003    17
STARLINK-11591 [DTC]    
1 63116C 25039N   26104.81090278  .00042549  00000+0  33055-3 0  1044
2 63116  43.0008  18.7317 0001594 259.2963 353.9500 15.70812028    16
STARLINK-32955          
1 63117C 25039P   26104.82270833  .00030972  00000+0  60990-3 0  1048
2 63117  42.9962 163.1500 0015056  64.6105  60.6924 15.46224180    18
STARLINK-32945          
1 63118C 25039Q   26104.76020833  .00004741  00000+0  17169-3 0  1040
2 63118  43.0010 168.9143 0000802 277.6598 138.1727 15.27582220    19
STARLINK-32941          
1 63119C 25039R   26104.80812500 -.00035480  00000+0 -12852-2 0  1045
2 63119  43.0004 157.4291 0001680 270.0547  28.2876 15.27593231    14
STARLINK-32942          
1 63120C 25039S   26104.78034722 -.00005244  00000+0 -19001-3 0  1045
2 63120  43.0019 168.8832 0001384 276.0498 215.2754 15.27566588    19
STARLINK-32947          
1 63121C 25039T   26104.73173611  .00023162  00000+0  83887-3 0  1042
2 63121  43.0000 168.7306 0001603 276.6344 123.9234 15.27568618    19
STARLINK-32961          
1 63122C 25039U   26104.79909722 -.00014728  00000+0 -53341-3 0  1041
2 63122  43.0020 168.9359 0001584 275.7608 255.1426 15.27587081    19
STARLINK-32948          
1 63123C 25039V   26104.81229167 -.00025989  00000+0 -94116-3 0  1049
2 63123  43.0025 168.7556 0001479 271.0862  14.9039 15.27596767    18
STARLINK-32957          
1 63124C 25039W   26104.82201389 -.00030035  00000+0 -10876-2 0  1045
2 63124  43.0028 168.8892 0001814 276.3913 345.2999 15.27600104    10
STARLINK-11609 [DTC]    
1 63132C 25043A   26104.72409722  .00028659  00000+0  22279-3 0  1047
2 63132  43.0002  33.6217 0001711 259.6896 264.3450 15.70803052    19
STARLINK-11604 [DTC]    
1 63133C 25043B   26104.82270833  .00037269  00000+0  28957-3 0  1044
2 63133  43.0005  33.3269 0001576 251.3847 350.7310 15.70811547    14
STARLINK-11605 [DTC]    
1 63134C 25043C   26104.80604167  .00039904  00000+0  31015-3 0  1041
2 63134  43.0004  33.2023 0001743 255.0126 342.9324 15.70801582    14
STARLINK-11610 [DTC]    
1 63135C 25043D   26104.74562500  .00049442  00000+0  38421-3 0  1045
2 63135  43.0004  33.6403 0001641 254.0461 331.7526 15.70802202    19
STARLINK-11613 [DTC]    
1 63136C 25043E   26104.72687500  .00008945  00000+0  69539-4 0  1040
2 63136  43.0005  33.8275 0001716 256.4775 193.1119 15.70812449    19
STARLINK-11616 [DTC]    
1 63137C 25043F   26104.73451389  .00025237  00000+0  19610-3 0  1043
2 63137  43.0008  33.1213 0001770 255.7797 142.4343 15.70815345    18
STARLINK-11611 [DTC]    
1 63138C 25043G   26104.76368056  .00038824  00000+0  30175-3 0  1040
2 63138  43.0004  33.1567 0001653 253.6933 224.6564 15.70802355    11
STARLINK-11628 [DTC]    
1 63139C 25043H   26104.81159722  .00034825  00000+0  27066-3 0  1047
2 63139  43.0004  32.9428 0001529 263.6368  95.9433 15.70805820    14
STARLINK-11607 [DTC]    
1 63140C 25043J   26104.82201389  .00046006  00000+0  35745-3 0  1044
2 63140  43.0009  32.6551 0001663 258.4480 250.2825 15.70807587    14
STARLINK-11522 [DTC]    
1 63141C 25043K   26104.77409722  .00039032  00000+0  30330-3 0  1046
2 63141  43.0007  33.0178 0001673 257.8712 309.5016 15.70808180    15
STARLINK-11503 [DTC]    
1 63142C 25043L   26104.73590278  .00022399  00000+0  17408-3 0  1049
2 63142  43.0008  33.0227 0001723 256.8469 184.4557 15.70812499    14
STARLINK-11579 [DTC]    
1 63143C 25043M   26104.78381944  .00048850  00000+0  37955-3 0  1042
2 63143  43.0007  32.8089 0001704 256.6548  65.8875 15.70805644    11
STARLINK-11581 [DTC]    
1 63144C 25043N   26104.73868056  .00031713  00000+0  24643-3 0  1042
2 63144  43.0004  33.4537 0001591 256.6225  20.0459 15.70811812    15
STARLINK-32949          
1 63145C 25043P   26104.76298611  .00012590  00000+0  45586-3 0  1041
2 63145  43.0000 172.7837 0001367 267.4187 179.9520 15.27582549    17
STARLINK-32952          
1 63146C 25043Q   26104.75743056  .00020494  00000+0  74205-3 0  1041
2 63146  43.0019 179.3432 0001416 271.6018 306.2997 15.27578160    14
STARLINK-32936          
1 63147C 25043R   26104.80534722 -.00001572  00000+0 -56943-4 0  1044
2 63147  43.0022 179.1274 0001547 275.6117 191.9464 15.27585084    11
STARLINK-32937          
1 63148C 25043S   26104.71645833  .00035975  00000+0  13035-2 0  1046
2 63148  43.0016 172.7117 0001643 279.2798  53.5299 15.27547653    11
